[{"OBJECT_NAME":"FLOCK 4H-4","OBJECT_ID":"2025-276AT","EPOCH":"2026-03-09T18:25:08.103360","MEAN_MOTION":15.18459011,"ECCENTRICITY":0.00044168,"INCLINATION":97.4291,"RA_OF_ASC_NODE":144.0059,"ARG_OF_PERICENTER":7.9405,"MEAN_ANOMALY":352.1898,"EPHEMERIS_TYPE":0,"CLASSIFICATION_TYPE":"U","NORAD_CAT_ID":66707,"ELEMENT_SET_NO":999,"REV_AT_EPOCH":1532,"BSTAR":0.0003950899,"MEAN_MOTION_DOT":8.077e-5,"MEAN_MOTION_DDOT":0},{"OBJECT_NAME":"ICEYE-X60","OBJECT_ID":"2025-276CR","EPOCH":"2026-03-09T18:23:10.076640","MEAN_MOTION":15.18150432,"ECCENTRICITY":0.00030743,"INCLINATION":97.4272,"RA_OF_ASC_NODE":143.9786,"ARG_OF_PERICENTER":37.9944,"MEAN_ANOMALY":322.1506,"EPHEMERIS_TYPE":0,"CLASSIFICATION_TYPE":"U","NORAD_CAT_ID":66753,"ELEMENT_SET_NO":999,"REV_AT_EPOCH":1532,"BSTAR":0.00022155306,"MEAN_MOTION_DOT":4.457e-5,"MEAN_MOTION_DDOT":0}]
